[{"OBJECT_NAME":"STARLINK-1752","OBJECT_ID":"2020-062P","EPOCH":"2026-03-10T00:00:02.999808","MEAN_MOTION":15.9241695,"ECCENTRICITY":0.00034479,"INCLINATION":53.0379,"RA_OF_ASC_NODE":325.4271,"ARG_OF_PERICENTER":232.9252,"MEAN_ANOMALY":336.4836,"EPHEMERIS_TYPE":0,"CLASSIFICATION_TYPE":"U","NORAD_CAT_ID":46338,"ELEMENT_SET_NO":999,"REV_AT_EPOCH":599,"BSTAR":0.0011331224,"MEAN_MOTION_DOT":0.00390348,"MEAN_MOTION_DDOT":6.957812e-5},{"OBJECT_NAME":"STARLINK-36928","OBJECT_ID":"2026-040F","EPOCH":"2026-03-09T22:00:01.999584","MEAN_MOTION":16.05320953,"ECCENTRICITY":9.343e-5,"INCLINATION":97.2776,"RA_OF_ASC_NODE":17.1143,"ARG_OF_PERICENTER":92.0658,"MEAN_ANOMALY":266.2846,"EPHEMERIS_TYPE":0,"CLASSIFICATION_TYPE":"U","NORAD_CAT_ID":68020,"ELEMENT_SET_NO":999,"REV_AT_EPOCH":246,"BSTAR":-0.0016997597,"MEAN_MOTION_DOT":-0.011705,"MEAN_MOTION_DDOT":0.00046666201}]
